C/2019 Y4 (ATLAS),e,45.3822,120.5725,177.3140,553.7394,0.0000756,0.99954309,0.0000,05/31.0601/2020,2000,g 11.8,6.0
# From MPEC 2020-L06
C/2019 Y4-A (ATLAS),h,05/31.0432/2020,45.8240,120.9287,177.2565,1.001358,0.251141,2000,11.6,6.0
# From MPEC 2020-L06
C/2019 Y4-B (ATLAS),e,45.4586,120.6246,177.3898,1158,0.0000250,0.99978178,0.0000,05/31.0220/2020,2000,g 12.8,6.0
# From MPEC 2020-L06
C/2019 Y4-C (ATLAS),h,05/31.0014/2020,45.6063,120.6545,177.2899,1.002075,0.252192,2000,12.7,6.0
# From MPEC 2020-L06
C/2019 Y4-D (ATLAS),e,45.6477,121.0350,177.4286,67.51330,0.0017767,0.99627350,0.0000,05/31.1187/2020,2000,g 12.5,6.0
# From MPEC 2020-L06
C/2020 A2 (Iwamoto),e,120.7451,286.3779,68.2077,1301,0.0000210,0.99924859,0.0000,01/08.3639/2020,2000,g 13.5,4.0
# From MPEC 2020-L06
C/2020 A3 (ATLAS),h,07/29.7293/2019,146.7765,120.3778,271.1707,1.025324,5.839456,2000,8.0,4.0
# From MPEC 2020-L06
C/2020 B3 (Rankin),e,20.7062,185.8294,325.0677,1396,0.0000189,0.99760471,0.0000,10/19.7430/2019,2000,g 13.0,4.0
# From MPEC 2020-L06
C/2020 F2 (ATLAS),h,07/16.5551/2022,163.5770,250.2530,48.3741,1.003078,8.816838,2000,4.5,4.0
# From MPEC 2020-L06
C/2020 F3 (NEOWISE),e,128.9310,61.0131,37.2670,357.6025,0.0001457,0.99917588,0.0000,07/03.6756/2020,2000,g 12.5,3.2
# From MPEC 2020-L06
C/2020 F5 (MASTER),h,03/24.0359/2021,51.7047,350.6184,311.0360,1.002648,4.326697,2000,6.5,3.2
# From MPEC 2020-L06
C/2020 F6 (PANSTARRS),e,174.5820,207.8841,344.6089,390.1205,0.0001279,0.99099990,0.0000,04/11.6525/2020,2000,g 14.5,2.8
# From MPEC 2020-L06
A/2020 F7,e,93.9533,321.8867,227.9830,758.6631,0.0000472,0.99297204,0.0000,11/14.0928/2021,2000,g 12.0,2.0
# From MPEC 2020-KB7
C/2020 F8 (SWAN),e,110.7866,260.0040,68.2155,273.4563,0.0002180,0.99842652,0.0000,05/27.5726/2020,2000,g 10.0,4.0
# From MPEC 2020-L06
P/2020 G1 (Pimentel),e,18.4764,240.0935,207.6611,3.610913,0.1436410,0.85989013,50.2187,03/02.0/2021,2000,g 17.0,4.0
# From MPEC 2020-L06
C/2020 H2 (Pruyne),e,125.0402,277.6385,26.7028,188.2094,0.0003817,0.99557034,0.0000,04/27.6030/2020,2000,g 18.0,4.0
# From MPEC 2020-HM1
C/2020 H3 (Wierzchos),p,06/05.7162/2020,62.5292,30.4456,2.300288,270.6227,2000,13.5,4.0
# From MPEC 2020-L06
C/2020 H4 (Leonard),e,84.5150,307.7369,117.6079,48.17181,0.0029479,0.98075363,0.0000,08/29.5189/2020,2000,g 15.0,3.2
# From MPEC 2020-L06
C/2020 H5 (Robinson),e,70.2555,210.5960,325.0648,1064,0.0000284,0.99119905,0.0000,11/14.8600/2020,2000,g  5.0,4.0
# From MPEC 2020-L06
C/2020 H6 (ATLAS),h,09/30.9726/2021,79.9684,213.6977,20.3168,1.000877,4.704667,2000,8.0,3.2
# From MPEC 2020-KB7
C/2020 H7 (Lemmon),e,135.9235,323.5194,82.6780,1405,0.0000187,0.99685380,0.0000,06/02.9510/2020,2000,g 11.0,4.0
# From MPEC 2020-KB7
C/2020 H8 (PANSTARRS),p,06/06.7207/2020,99.7116,129.2192,4.678446,68.3225,2000,10.5,4.0
# From MPEC 2020-L06
A/2020 H9,e,137.8738,213.1239,312.8931,535.5719,0.0000795,0.99518400,0.0000,12/21.3647/2019,2000,g 18.0,2.0
# From MPEC 2020-L06
C/2020 J1 (SONEAR),e,142.2924,226.5921,341.7294,477.9902,0.0000943,0.99297068,0.0000,04/19.3841/2021,2000,g  8.5,3.2
# From MPEC 2020-L06
C/2020 K1 (PANSTARRS),h,05/08.0672/2023,89.6539,94.3628,213.9192,1.000839,3.073805,2000,5.5,4.0
# From MPEC 2020-KF5
C/2020 K2 (PANSTARRS),p,12/30.6730/2018,89.7510,34.2348,8.177098,285.5819,2000,6.5,4.0
# From MPEC 2020-KF9
C/2020 K3 (Leonard),p,06/01.0032/2020,129.0152,64.4924,1.583069,28.3546,2000,14.5,4.0
# From MPEC 2020-L06
C/2020 K4 (PANSTARRS),e,125.5626,264.0952,308.7670,23.87126,0.0084507,0.92656583,3.0699,03/02.0/2021,2000,g 16.5,4.0
# From MPEC 2020-L06
C/2020 K5 (PANSTARRS),h,06/05.5822/2021,67.1582,86.1619,249.5930,1.001590,1.535493,2000,11.0,4.0
# From MPEC 2020-L06
C/2020 K6 (Rankin),h,08/26.8185/2021,103.7929,291.5605,41.7289,1.000201,5.992462,2000,8.0,4.0
# From MPEC 2020-L09
C/2020 K7 (PANSTARRS),p,10/05.3027/2021,34.5520,60.8413,5.644571,287.4776,2000,8.0,4.0
# From MPEC 2021-BE3
C/2020 K8 (Catalina-ATLAS),h,09/14.5161/2020,31.4153,181.5196,260.0524,1.000250,0.474552,2000,15.0,3.2
# From MPEC 2021-BE3
P/2020 K9 (Lemmon-PANSTARRS),e,23.2094,166.2399,196.8785,4.199883,0.1145113,0.32154733,2.0812,03/02.0/2021,2000,g 12.5,4.0
# From MPEC 2020-K19
P/2020 M1 (PANSTARRS),e,8.6439,142.9007,68.1736,5.112876,0.0852523,0.47908984,37.1403,03/02.0/2021,2000,g 14.5,4.0
# From MPEC 2021-AJ0
C/2020 M3 (ATLAS),e,23.4729,71.2492,328.4483,26.83569,0.0070898,0.95274020,0.9031,03/02.0/2021,2000,g 14.5,4.0
# From MPEC 2021-BE3
C/2020 M3 (ATLAS),e,23.4729,71.2492,328.4483,26.83581,0.0070898,0.95274040,0.9031,03/02.0/2021,2000,g 14.5,4.0
# From MPEC 2020-K19
A/2020 M4,e,160.1258,348.6296,104.6460,6558,0.0000019,0.99909234,0.0000,11/23.8682/2020,2000,g 14.5,2.0
# From MPEC 2021-BE3
C/2020 M5 (ATLAS),e,93.2221,352.0968,126.3392,12622,0.0000007,0.99976198,0.0000,08/19.8864/2021,2000,g  9.0,4.0
# From MPEC 2021-BE3
C/2020 N1 (PANSTARRS),h,03/12.2284/2021,29.7036,279.9819,186.7709,1.000515,1.320713,2000,12.5,4.0
# From MPEC 2020-W26
C/2020 N2 (ATLAS),e,161.0337,257.0720,331.2044,107.9807,0.0008784,0.98338574,0.0000,08/23.6708/2020,2000,g 16.0,3.2
# From MPEC 2020-SI8
P/2020 O1 (Lemmon-PANSTARRS),e,5.2256,175.9762,104.6014,2.644893,0.2291353,0.11956474,69.4401,03/02.0/2021,2000,g 15.5,4.0
# From MPEC 2021-BE3
C/2020 O2 (Amaral),h,08/28.0991/2021,71.7520,256.7518,10.2247,1.002133,4.864610,2000,8.0,3.2
# From MPEC 2020-SI8
P/2020 O3 (PANSTARRS),e,8.4409,266.8618,81.4939,4.656054,0.0981018,0.10510420,3.0521,03/02.0/2021,2000,g 12.0,4.0
# From MPEC 2021-BE3
C/2020 P1 (NEOWISE),h,10/20.1785/2020,45.0554,53.5368,8.8945,1.000285,0.342156,2000,14.0,3.2
# From MPEC 2021-BE3
C/2020 P3 (ATLAS),e,61.8854,19.4906,82.2471,5701,0.0000023,0.99880498,0.0000,04/20.8876/2021,2000,g  6.0,4.0
# From MPEC 2021-BE3
C/2020 Q1 (Borisov),e,142.9231,52.3913,9.8977,59.33369,0.0021565,0.97783697,0.0000,08/14.6618/2020,2000,g 14.0,4.0
# From MPEC 2021-BE3
C/2020 R2 (PANSTARRS),e,53.2225,195.0925,211.6916,406.4132,0.0001203,0.98845342,0.0000,02/24.2068/2022,2000,g  9.0,4.0
# From MPEC 2021-BE3
C/2020 R4 (ATLAS),e,164.4629,323.2758,46.7256,96.04815,0.0010471,0.98929261,0.0000,03/01.9418/2021,2000,g 13.5,4.0
# From MPEC 2020-W26
P/2020 R5 (PANSTARRS),e,11.4542,272.9714,82.3511,4.979716,0.0886946,0.31455293,24.6237,03/02.0/2021,2000,g  9.5,6.0
# From MPEC 2020-W26
C/2020 R6 (Rankin),e,82.8225,12.1745,271.9553,574.3253,0.0000716,0.99455696,0.0000,09/10.2554/2019,2000,g 11.0,4.0
# From MPEC 2021-BE3
C/2020 R7 (ATLAS),e,114.8919,268.2803,347.8265,5805,0.0000022,0.99949069,0.0000,09/16.2627/2022,2000,g  7.0,3.2
# From MPEC 2021-BE3
P/2020 S1 (PANSTARRS),e,13.7340,129.4589,254.8829,5.980178,0.0673958,0.50715563,2.9683,03/02.0/2021,2000,g 14.0,4.0
# From MPEC 2021-BE3
C/2020 S2 (PANSTARRS),e,22.3976,197.6846,202.2682,10.18108,0.0303398,0.82751903,2.1255,03/02.0/2021,2000,g 17.0,4.0
# From MPEC 2021-BE3
C/2020 S3 (Erasmus),e,19.8614,222.9945,349.8847,188.5448,0.0003807,0.99788646,0.0000,12/12.6704/2020,2000,g 13.5,3.2
# From MPEC 2021-BE3
C/2020 S4 (PANSTARRS),e,20.5751,117.7111,21.0671,9162,0.0000011,0.99963239,0.0000,02/09.6580/2023,2000,g  8.5,3.2
# From MPEC 2021-BE3
P/2020 S5 (PANSTARRS),e,12.3540,315.9987,53.0245,4.048759,0.1209821,0.33837544,24.8723,03/02.0/2021,2000,g 14.5,4.0
# From MPEC 2021-BE3
P/2020 S6 (Leonard),e,15.4595,242.5701,176.6556,3.599285,0.1443377,0.47911146,14.2006,03/02.0/2021,2000,g 16.0,4.0
# From MPEC 2021-BE3
P/2020 S7 (PANSTARRS),e,16.0921,328.0187,40.4107,5.022771,0.0875566,0.41047523,9.0975,03/02.0/2021,2000,g 14.5,4.0
# From MPEC 2021-BE3
C/2020 S8 (Lemmon),e,108.5178,24.0523,160.3315,273.3988,0.0002180,0.99135364,0.0000,04/10.9266/2021,2000,g 12.5,4.0
# From MPEC 2021-BE3
C/2020 T2 (Palomar),e,27.8727,83.0498,150.3773,316.7043,0.0001749,0.99351214,0.0000,07/11.1376/2021,2000,g 11.0,3.2
# From MPEC 2021-BE3
P/2020 T3 (PANSTARRS),e,7.2957,74.0200,357.0414,3.517636,0.1493921,0.59159987,6.0550,03/02.0/2021,2000,g 18.0,3.2
# From MPEC 2021-BE3
C/2020 T4 (PANSTARRS),h,07/05.2425/2021,83.8176,50.6218,79.5989,1.000126,2.191985,2000,13.0,3.2
# From MPEC 2021-BE3
C/2020 T5 (Lemmon),e,66.6031,237.8609,90.2959,852.4640,0.0000396,0.99778405,0.0000,10/09.6259/2020,2000,g 16.0,4.0
# From MPEC 2021-BE3
P/2020 U2 (PANSTARRS),e,6.4210,342.8991,84.6508,3.777431,0.1342485,0.51055604,8.8997,03/02.0/2021,2000,g 18.0,4.0
# From MPEC 2021-BE3
C/2020 U3 (Rankin),e,30.1769,282.6790,124.2635,64.75329,0.0018915,0.96484847,0.0454,03/02.0/2021,2000,g 15.0,4.0
# From MPEC 2021-BE3
C/2020 U4 (PANSTARRS),h,04/07.7059/2022,167.0374,120.0209,69.5160,1.002439,5.353905,2000,7.0,4.0
# From MPEC 2021-BE3
C/2020 U5 (PANSTARRS),e,97.2796,107.3430,75.4095,52850,0.0000001,0.99992893,0.0000,04/27.7962/2022,2000,g  8.0,4.0
# From MPEC 2021-BE3
C/2020 V2 (ZTF),h,05/08.4459/2023,131.5937,212.3346,162.3846,1.001334,2.227920,2000,4.9,4.0
# From MPEC 2021-BE3
P/2020 V3 (PANSTARRS),e,23.0337,198.2890,249.2430,8.361881,0.0407613,0.25487344,0.9099,03/02.0/2021,2000,g  8.3,4.0
# From MPEC 2021-BE3
P/2020 V4 (Rankin),e,14.2438,203.5150,257.0028,9.337939,0.0345404,0.44864107,355.2313,03/02.0/2021,2000,g  9.0,4.0
# From MPEC 2021-BE3
P/2020 W1 (Rankin),e,10.7920,124.2587,264.7879,7.195887,0.0510596,0.26517955,16.9314,03/02.0/2021,2000,g 10.0,4.0
# From MPEC 2021-BE3
C/2020 W5 (Lemmon),h,11/30.1110/2020,88.5862,75.5121,24.4822,1.001030,3.364233,2000,15.0,4.0
# From MPEC 2021-BE3
P/2020 X1 (ATLAS),e,31.6752,56.0352,323.5333,4.521124,0.1025261,0.36443491,22.9177,03/02.0/2021,2000,g 13.0,4.0
# From MPEC 2021-BE3
C/2020 X2 (ATLAS),e,18.1915,105.4588,347.3530,16.38411,0.0148617,0.76632903,1.5773,03/02.0/2021,2000,g 10.6,4.0
# From MPEC 2021-BE3
C/2020 X4 (Leonard),e,80.4841,161.8994,139.5115,46.84240,0.0030743,0.88878907,0.3413,03/02.0/2021,2000,g  9.0,4.0
# From MPEC 2021-BE3
C/2020 Y2 (ATLAS),e,101.2822,26.5064,266.0985,1163,0.0000249,0.99730625,0.0000,06/17.7259/2022,2000,g  6.5,4.0
# From MPEC 2021-BE3
C/2020 Y3 (ATLAS),e,83.1037,191.4338,342.0954,166.3591,0.0004593,0.98797796,0.0000,12/03.5871/2020,2000,g 13.5,4.0
# From MPEC 2021-BE3
